{
  "type": "FeatureCollection",
  "features": [
    {
      "type": "Feature",
      "properties": {
        "norad_id": 43647,
        "name": "BEIDOU-3 M16 (C35)",
        "group": "gnss",
        "lat": -28.58035218208413,
        "lon": 149.60881075284343,
        "alt_km": 21550.544160174606,
        "timestamp": "2025-12-11T22:43:47.511107+00:00",
        "meta_object_name": "BEIDOU-3 M16 (C35)",
        "meta_object_id": "2018-078A",
        "meta_epoch": "2025-12-08T22:33:41.935680",
        "meta_mean_motion": 1.86232209,
        "meta_eccentricity": 0.0007116,
        "meta_inclination": 54.2656,
        "meta_ra_of_asc_node": 306.6541,
        "meta_arg_of_pericenter": 19.0293,
        "meta_mean_anomaly": 340.9862,
        "meta_ephemeris_type": 0,
        "meta_classification_type": "U",
        "meta_norad_cat_id": 43647,
        "meta_element_set_no": 999,
        "meta_rev_at_epoch": 4861,
        "meta_bstar": 0,
        "meta_mean_motion_dot": -7.5e-07,
        "meta_mean_motion_ddot": 0,
        "tle_line1": "1 43647U 18078A   25342.94006870 -.00000075  00000+0  00000+0 0  9999",
        "tle_line2": "2 43647  54.2656 306.6541 0007116  19.0293 340.9862  1.86232209 48612"
      },
      "geometry": {
        "type": "Point",
        "coordinates": [
          149.60881075284343,
          -28.58035218208413
        ]
      }
    },
    {
      "type": "Feature",
      "properties": {
        "norad_id": 43648,
        "name": "BEIDOU-3 M15 (C34)",
        "group": "gnss",
        "lat": 38.767997427603625,
        "lon": 91.22587089784948,
        "alt_km": 21526.926124059133,
        "timestamp": "2025-12-11T22:43:47.511125+00:00",
        "meta_object_name": "BEIDOU-3 M15 (C34)",
        "meta_object_id": "2018-078B",
        "meta_epoch": "2025-12-09T14:32:59.144640",
        "meta_mean_motion": 1.86231871,
        "meta_eccentricity": 0.0003622,
        "meta_inclination": 54.2606,
        "meta_ra_of_asc_node": 306.6314,
        "meta_arg_of_pericenter": 18.0065,
        "meta_mean_anomaly": 341.9965,
        "meta_ephemeris_type": 0,
        "meta_classification_type": "U",
        "meta_norad_cat_id": 43648,
        "meta_element_set_no": 999,
        "meta_rev_at_epoch": 4864,
        "meta_bstar": 0,
        "meta_mean_motion_dot": -7.7e-07,
        "meta_mean_motion_ddot": 0,
        "tle_line1": "1 43648U 18078B   25343.60624010 -.00000077  00000+0  00000+0 0  9998",
        "tle_line2": "2 43648  54.2606 306.6314 0003622  18.0065 341.9965  1.86231871 48642"
      },
      "geometry": {
        "type": "Point",
        "coordinates": [
          91.22587089784948,
          38.767997427603625
        ]
      }
    },
    {
      "type": "Feature",
      "properties": {
        "norad_id": 43683,
        "name": "BEIDOU-3 G1 (C59)",
        "group": "gnss",
        "lat": 2.562059420780618,
        "lon": -158.06227258950275,
        "alt_km": 35779.89169349204,
        "timestamp": "2025-12-11T22:43:47.511143+00:00",
        "meta_object_name": "BEIDOU-3 G1 (C59)",
        "meta_object_id": "2018-085A",
        "meta_epoch": "2025-12-11T14:10:41.232000",
        "meta_mean_motion": 1.00270999,
        "meta_eccentricity": 0.00017705,
        "meta_inclination": 2.6051,
        "meta_ra_of_asc_node": 103.012,
        "meta_arg_of_pericenter": 64.3053,
        "meta_mean_anomaly": 265.9746,
        "meta_ephemeris_type": 0,
        "meta_classification_type": "U",
        "meta_norad_cat_id": 43683,
        "meta_element_set_no": 999,
        "meta_rev_at_epoch": 2617,
        "meta_bstar": 0,
        "meta_mean_motion_dot": -2.7e-06,
        "meta_mean_motion_ddot": 0,
        "tle_line1": "1 43683U 18085A   25345.59075500 -.00000270  00000+0  00000+0 0  9994",
        "tle_line2": "2 43683   2.6051 103.0120 0001770  64.3053 265.9746  1.00270999 26175"
      },
      "geometry": {
        "type": "Point",
        "coordinates": [
          -158.06227258950275,
          2.562059420780618
        ]
      }
    },
    {
      "type": "Feature",
      "properties": {
        "norad_id": 43687,
        "name": "COSMOS 2529 (757)",
        "group": "gnss",
        "lat": 0.14420174001239436,
        "lon": -161.01221337592372,
        "alt_km": 19135.55393714641,
        "timestamp": "2025-12-11T22:43:47.511162+00:00",
        "meta_object_name": "COSMOS 2529 (757)",
        "meta_object_id": "2018-086A",
        "meta_epoch": "2025-12-11T00:12:01.414944",
        "meta_mean_motion": 2.13101894,
        "meta_eccentricity": 0.00072871,
        "meta_inclination": 64.2919,
        "meta_ra_of_asc_node": 198.9469,
        "meta_arg_of_pericenter": 254.1536,
        "meta_mean_anomaly": 105.8359,
        "meta_ephemeris_type": 0,
        "meta_classification_type": "U",
        "meta_norad_cat_id": 43687,
        "meta_element_set_no": 999,
        "meta_rev_at_epoch": 5527,
        "meta_bstar": 0,
        "meta_mean_motion_dot": 5e-07,
        "meta_mean_motion_ddot": 0,
        "tle_line1": "1 43687U 18086A   25345.00834971  .00000050  00000+0  00000+0 0  9995",
        "tle_line2": "2 43687  64.2919 198.9469 0007287 254.1536 105.8359  2.13101894 55276"
      },
      "geometry": {
        "type": "Point",
        "coordinates": [
          -161.01221337592372,
          0.14420174001239436
        ]
      }
    },
    {
      "type": "Feature",
      "properties": {
        "norad_id": 43706,
        "name": "BEIDOU-3 M17 (C36)",
        "group": "gnss",
        "lat": 18.587162995596685,
        "lon": -157.2836254220253,
        "alt_km": 21521.822032793236,
        "timestamp": "2025-12-11T22:43:47.511179+00:00",
        "meta_object_name": "BEIDOU-3 M17 (C36)",
        "meta_object_id": "2018-093A",
        "meta_epoch": "2025-12-11T15:30:48.559104",
        "meta_mean_motion": 1.86228399,
        "meta_eccentricity": 0.00062348,
        "meta_inclination": 54.1726,
        "meta_ra_of_asc_node": 188.6587,
        "meta_arg_of_pericenter": 307.4017,
        "meta_mean_anomaly": 234.1514,
        "meta_ephemeris_type": 0,
        "meta_classification_type": "U",
        "meta_norad_cat_id": 43706,
        "meta_element_set_no": 999,
        "meta_rev_at_epoch": 4804,
        "meta_bstar": 0,
        "meta_mean_motion_dot": 7.1e-07,
        "meta_mean_motion_ddot": 0,
        "tle_line1": "1 43706U 18093A   25345.64639536  .00000071  00000+0  00000+0 0  9998",
        "tle_line2": "2 43706  54.1726 188.6587 0006234 307.4017 234.1514  1.86228399 48041"
      },
      "geometry": {
        "type": "Point",
        "coordinates": [
          -157.2836254220253,
          18.587162995596685
        ]
      }
    },
    {
      "type": "Feature",
      "properties": {
        "norad_id": 43707,
        "name": "BEIDOU-3 M18 (C37)",
        "group": "gnss",
        "lat": 46.724352277524,
        "lon": -41.47007891132251,
        "alt_km": 21532.744302464518,
        "timestamp": "2025-12-11T22:43:47.511197+00:00",
        "meta_object_name": "BEIDOU-3 M18 (C37)",
        "meta_object_id": "2018-093B",
        "meta_epoch": "2025-12-09T02:08:32.306784",
        "meta_mean_motion": 1.86226655,
        "meta_eccentricity": 0.00062934,
        "meta_inclination": 54.1729,
        "meta_ra_of_asc_node": 188.7377,
        "meta_arg_of_pericenter": 351.6926,
        "meta_mean_anomaly": 8.358,
        "meta_ephemeris_type": 0,
        "meta_classification_type": "U",
        "meta_norad_cat_id": 43707,
        "meta_element_set_no": 999,
        "meta_rev_at_epoch": 4799,
        "meta_bstar": 0,
        "meta_mean_motion_dot": 4.9e-07,
        "meta_mean_motion_ddot": 0,
        "tle_line1": "1 43707U 18093B   25343.08926281  .00000049  00000+0  00000+0 0  9996",
        "tle_line2": "2 43707  54.1729 188.7377 0006293 351.6926   8.3580  1.86226655 47998"
      },
      "geometry": {
        "type": "Point",
        "coordinates": [
          -41.47007891132251,
          46.724352277524
        ]
      }
    },
    {
      "type": "Feature",
      "properties": {
        "norad_id": 43873,
        "name": "GPS BIII-1  (PRN 04)",
        "group": "gnss",
        "lat": -50.10189454495946,
        "lon": 44.51740577428235,
        "alt_km": 20199.884683678218,
        "timestamp": "2025-12-11T22:43:47.511217+00:00",
        "meta_object_name": "GPS BIII-1  (PRN 04)",
        "meta_object_id": "2018-109A",
        "meta_epoch": "2025-12-11T13:23:14.841888",
        "meta_mean_motion": 2.00553563,
        "meta_eccentricity": 0.00372884,
        "meta_inclination": 55.5667,
        "meta_ra_of_asc_node": 99.5933,
        "meta_arg_of_pericenter": 194.9209,
        "meta_mean_anomaly": 175.1233,
        "meta_ephemeris_type": 0,
        "meta_classification_type": "U",
        "meta_norad_cat_id": 43873,
        "meta_element_set_no": 999,
        "meta_rev_at_epoch": 5131,
        "meta_bstar": 0,
        "meta_mean_motion_dot": 4e-08,
        "meta_mean_motion_ddot": 0,
        "tle_line1": "1 43873U 18109A   25345.55781067  .00000004  00000+0  00000+0 0  9994",
        "tle_line2": "2 43873  55.5667  99.5933 0037288 194.9209 175.1233  2.00553563 51312"
      },
      "geometry": {
        "type": "Point",
        "coordinates": [
          44.51740577428235,
          -50.10189454495946
        ]
      }
    }
  ]
}